
LEMUR-1
1 40044U 14033AL  26170.18029978  .00001591  00000+0  18766-3 0  9999
2 40044  97.7879 319.9410 0049607  72.2750 288.3871 14.85253165645762

LEMUR-2-AHMED-ASRAR
1 60576U 24149DN  26170.21302402  .00009197  00000+0  52816-3 0  9994
2 60576  97.7002 255.2287 0001678  39.1197 321.0154 15.12750449100874

LEMUR-2-ALISIA
1 62706U 25009DB  26170.19976464  .00005821  00000+0  43945-3 0  9992
2 62706  97.6943 252.3561 0002202 190.1790 169.9391 15.02790940100464

LEMUR-2-AMANDA-SVANTE
1 48269U 21034B   26170.18353729  .00028526  00000+0  85661-3 0  9994
2 48269  97.5756 248.5220 0002572 201.4134 158.7001 15.34395097281362

LEMUR-2-ANDIS
1 42838U 17042P   26170.00717597  .00016338  00000+0  48414-3 0  9995
2 42838  97.3678 350.8131 0007995   5.7583 354.3751 15.34901289488736

LEMUR-2-ARIANNA
1 62699U 25009CU  26170.22223898  .00006302  00000+0  47883-3 0  9993
2 62699  97.6893 251.5892 0004427 112.0551 248.1145 15.02510805 77860

LEMUR-2-BASS
1 58259U 23174D   26170.22048857  .00014932  00000+0  33852-3 0  9990
2 58259  97.3843 254.9612 0007822 155.8715 204.2901 15.43151520145673

LEMUR-2-CAEL
1 58903U 24022E   26170.09791265  .00013636  00000+0  33184-3 0  9990
2 58903  97.4084  21.0515 0009247  91.8084 268.4222 15.41026025132632

LEMUR-2-DEMBITZ
1 42842U 17042T   26170.06227203  .00012966  00000+0  44389-3 0  9996
2 42842  97.3827 351.6540 0006568  22.4740 337.6787 15.30339757488639

LEMUR-2-DEVERILL-M-T
1 57391U 23100F   26170.05436228  .00020336  00000+0  51440-3 0  9997
2 57391  99.4465 209.3513 0006143  44.3176 315.8554 15.39829166161533

LEMUR-2-EMBRIONOVIS
1 56970U 23084AQ  26169.89379897  .00010281  00000+0  28080-3 0  9990
2 56970  97.6299 314.1581 0007637 313.4025  46.6582 15.37582970167940

LEMUR-2-FURIAUS
1 42840U 17042R   26170.23860679  .00015285  00000+0  52300-3 0  9992
2 42840  97.3776 348.8037 0008057  62.8731 297.3331 15.30308008488522

LEMUR-2-GREENBERG
1 42837U 17042N   26170.24336858  .00014345  00000+0  47503-3 0  9991
2 42837  97.3823 350.8580 0008287   6.3908 353.7437 15.31380921488700

LEMUR-2-JK0903EM1407
1 58336U 23174CJ  26170.27181751  .00024562  00000+0  41235-3 0  9996
2 58336  97.3920 260.8005 0005662 114.5018 245.6825 15.51770950146055

LEMUR-2-JOHNNYTRUONG
1 59146U 24043BA  26169.88138331  .00029810  00000+0  36159-3 0  9993
2 59146  97.5383 321.6891 0004872 171.1048 189.0296 15.60571558128307

LEMUR-2-LLOYD
1 60577U 24149DP  26170.23016838  .00008750  00000+0  55299-3 0  9994
2 60577  97.6746 251.3600 0004997 134.2041 225.9599 15.09273865100702

LEMUR-2-MARHISYAM
1 60536U 24149BW  26170.24701071  .00009532  00000+0  56963-3 0  9998
2 60536  97.6878 253.1618 0003245 114.2659 245.8910 15.11296020100798

LEMUR-2-MJR092620
1 58340U 23174CN  26170.23144222  .00016682  00000+0  35587-3 0  9996
2 58340  97.3973 260.2980 0007093 111.7445 248.4560 15.44938872145964

LEMUR-2-MONSON
1 42839U 17042Q   26170.06014849  .00010941  00000+0  40227-3 0  9990
2 42839  97.4081 350.6452 0006002 358.9199   1.2027 15.28049146488455

LEMUR-2-NIMBUS2000
1 58899U 24022A   26170.28799938  .00016492  00000+0  41358-3 0  9995
2 58899  97.4106  20.3150 0010377 109.4188 250.8180 15.40057591132599

LEMUR-2-PETERG
1 42841U 17042S   26170.25339517  .00018048  00000+0  55119-3 0  9998
2 42841  97.3993 355.2862 0003020 348.3943  11.7229 15.33950101488753

LEMUR-2-SIERRINI
1 60579U 24149DR  26170.20474188  .00008626  00000+0  52024-3 0  9994
2 60579  97.6836 252.8059 0006012 158.7915 201.3565 15.10981107100763

LEMUR-2-SPECIAL-K
1 48273U 21034F   26170.19583987  .00142889  00000+0  14373-2 0  9991
2 48273  97.5648 257.1991 0004515 226.7755 133.3128 15.64968641282001

LEMUR-2-SQUIRRELCOMM
1 60578U 24149DQ  26170.18078975  .00005376  00000+0  36143-3 0  9997
2 60578  97.6704 251.0855 0006148  55.1263 305.0542 15.07168128100704

LEMUR-2-STAR-FOX
1 62696U 25009CR  26170.15727868  .00006073  00000+0  46139-3 0  9996
2 62696  97.6954 251.7517 0004025 106.9913 253.1753 15.02527607 77857

LEMUR-2-STELLA
1 60533U 24149BT  26170.19975131  .00008909  00000+0  52471-3 0  9996
2 60533  97.6732 252.6636 0001524  96.1703 263.9701 15.11844897100806

LEMUR-2-TOMATOKECHUP
1 60471U 24149D   26170.19195108  .00009349  00000+0  26838-3 0  9992
2 60471  97.3797 252.2439 0001643 171.4844 188.6428 15.36068984102473

LEMUR-2-VALHALLA
1 58900U 24022B   26170.08969666  .00012720  00000+0  32311-3 0  9992
2 58900  97.4103  20.1040 0010885 106.3171 253.9273 15.39719392132563

LEMUR-2-WILSON
1 62694U 25009CP  26170.10271063  .00002114  00000+0  19769-3 0  9991
2 62694  97.7029 248.5336 0004123  52.8856 307.2741 14.95173463 77649

LEMUR-2-ZACHARY
1 42845U 17042W   26170.25544358  .00041442  00000+0  72761-3 0  9999
2 42845  97.3595   1.9356 0002732  24.8170 335.3212 15.50414370489520
