OBJECT_NAME,OBJECT_ID,EPOCH,MEAN_MOTION,ECCENTRICITY,INCLINATION,RA_OF_ASC_NODE,ARG_OF_PERICENTER,MEAN_ANOMALY,EPHEMERIS_TYPE,CLASSIFICATION_TYPE,NORAD_CAT_ID,ELEMENT_SET_NO,REV_AT_EPOCH,BSTAR,MEAN_MOTION_DOT,MEAN_MOTION_DDOT
LEMUR-1,2014-033AL,2026-06-19T04:19:37.900992,14.85253165,.00496079,97.7879,319.9410,72.2750,288.3871,0,U,40044,999,64576,.18765882E-3,.1591E-4,0
LEMUR-2-GREENBERG,2017-042N,2026-06-19T05:50:27.045312,15.31380921,.00082875,97.3823,350.8580,6.3908,353.7437,0,U,42837,999,48870,.47502669E-3,.14345E-3,0
LEMUR-2-ANDIS,2017-042P,2026-06-19T00:10:20.003808,15.34901289,.0007995,97.3678,350.8131,5.7583,354.3751,0,U,42838,999,48873,.48413824E-3,.16338E-3,0
LEMUR-2-MONSON,2017-042Q,2026-06-19T01:26:36.829536,15.28049146,.00060025,97.4081,350.6452,358.9199,1.2027,0,U,42839,999,48845,.40226899E-3,.10941E-3,0
LEMUR-2-FURIAUS,2017-042R,2026-06-19T05:43:35.626656,15.30308008,.00080577,97.3776,348.8037,62.8731,297.3331,0,U,42840,999,48852,.52299501E-3,.15285E-3,0
LEMUR-2-PETERG,2017-042S,2026-06-19T06:04:53.342688,15.33950101,.00030206,97.3993,355.2862,348.3943,11.7229,0,U,42841,999,48875,.55119099E-3,.18048E-3,0
LEMUR-2-DEMBITZ,2017-042T,2026-06-19T01:29:40.303392,15.30339757,.0006568,97.3827,351.6540,22.4740,337.6787,0,U,42842,999,48863,.44388642E-3,.12966E-3,0
LEMUR-2-ZACHARY,2017-042W,2026-06-19T06:07:50.325312,15.50414370,.0002732,97.3595,1.9356,24.8170,335.3212,0,U,42845,999,48952,.72761283E-3,.41442E-3,0
LEMUR-2-AMANDA-SVANTE,2021-034B,2026-06-19T04:24:17.621856,15.34395097,.00025725,97.5756,248.5220,201.4134,158.7001,0,U,48269,999,28136,.85661119E-3,.28526E-3,0
LEMUR-2-SPECIAL-K,2021-034F,2026-06-19T04:42:00.564768,15.64968641,.00045158,97.5648,257.1991,226.7755,133.3128,0,U,48273,999,28200,.14372644E-2,.142889E-2,0
LEMUR-2-EMBRIONOVIS,2023-084AQ,2026-06-18T21:27:04.231008,15.37582970,.0007637,97.6299,314.1581,313.4025,46.6582,0,U,56970,999,16794,.2808E-3,.10281E-3,0
LEMUR-2-DEVERILL-M-T,2023-100F,2026-06-19T01:18:16.900992,15.39829166,.00061431,99.4465,209.3513,44.3176,315.8554,0,U,57391,999,16153,.51440121E-3,.20336E-3,0
LEMUR-2-BASS,2023-174D,2026-06-19T05:17:30.212448,15.43151520,.00078224,97.3843,254.9612,155.8715,204.2901,0,U,58259,999,14567,.33851829E-3,.14932E-3,0
LEMUR-2-JK0903EM1407,2023-174CJ,2026-06-19T06:31:25.032864,15.51770950,.0005662,97.3920,260.8005,114.5018,245.6825,0,U,58336,999,14605,.4123468E-3,.24562E-3,0
LEMUR-2-MJR092620,2023-174CN,2026-06-19T05:33:16.607808,15.44938872,.0007093,97.3973,260.2980,111.7445,248.4560,0,U,58340,999,14596,.3558706E-3,.16682E-3,0
LEMUR-2-NIMBUS2000,2024-022A,2026-06-19T06:54:43.146432,15.40057591,.0010377,97.4106,20.3150,109.4188,250.8180,0,U,58899,999,13259,.41357889E-3,.16492E-3,0
LEMUR-2-VALHALLA,2024-022B,2026-06-19T02:09:09.791424,15.39719392,.00108854,97.4103,20.1040,106.3171,253.9273,0,U,58900,999,13256,.3231105E-3,.1272E-3,0
LEMUR-2-CAEL,2024-022E,2026-06-19T02:20:59.652960,15.41026025,.0009247,97.4084,21.0515,91.8084,268.4222,0,U,58903,999,13263,.33183979E-3,.13636E-3,0
LEMUR-2-JOHNNYTRUONG,2024-043BA,2026-06-18T21:09:11.517984,15.60571558,.0004872,97.5383,321.6891,171.1048,189.0296,0,U,59146,999,12830,.36159E-3,.2981E-3,0
LEMUR-2-TOMATOKECHUP,2024-149D,2026-06-19T04:36:24.573312,15.36068984,.00016439,97.3797,252.2439,171.4844,188.6428,0,U,60471,999,10247,.26838184E-3,.9349E-4,0
LEMUR-2-STELLA,2024-149BT,2026-06-19T04:47:38.513184,15.11844897,.00015245,97.6732,252.6636,96.1703,263.9701,0,U,60533,999,10080,.52471034E-3,.8909E-4,0
LEMUR-2-MARHISYAM,2024-149BW,2026-06-19T05:55:41.725344,15.11296020,.00032455,97.6878,253.1618,114.2659,245.8910,0,U,60536,999,10079,.56962785E-3,.9532E-4,0
LEMUR-2-AHMED-ASRAR,2024-149DN,2026-06-19T05:06:45.275328,15.12750449,.00016782,97.7002,255.2287,39.1197,321.0154,0,U,60576,999,10087,.52816183E-3,.9197E-4,0
LEMUR-2-LLOYD,2024-149DP,2026-06-19T05:31:26.548032,15.09273865,.0004997,97.6746,251.3600,134.2041,225.9599,0,U,60577,999,10070,.55298833E-3,.875E-4,0
LEMUR-2-SQUIRRELCOMM,2024-149DQ,2026-06-19T04:20:20.234400,15.07168128,.00061488,97.6704,251.0855,55.1263,305.0542,0,U,60578,999,10070,.36142916E-3,.5376E-4,0
LEMUR-2-SIERRINI,2024-149DR,2026-06-19T04:54:49.698432,15.10981107,.00060121,97.6836,252.8059,158.7915,201.3565,0,U,60579,999,10076,.52024193E-3,.8626E-4,0
LEMUR-2-WILSON,2025-009CP,2026-06-19T02:27:54.198432,14.95173463,.0004123,97.7029,248.5336,52.8856,307.2741,0,U,62694,999,7764,.19768648E-3,.2114E-4,0
LEMUR-2-STAR-FOX,2025-009CR,2026-06-19T03:46:28.877952,15.02527607,.00040251,97.6954,251.7517,106.9913,253.1753,0,U,62696,999,7785,.46138939E-3,.6073E-4,0
LEMUR-2-ARIANNA,2025-009CU,2026-06-19T05:20:01.447872,15.02510805,.00044272,97.6893,251.5892,112.0551,248.1145,0,U,62699,999,7786,.4788325E-3,.6302E-4,0
LEMUR-2-ALISIA,2025-009DB,2026-06-19T04:47:39.664896,15.02790940,.00022026,97.6943,252.3561,190.1790,169.9391,0,U,62706,999,10046,.43944554E-3,.5821E-4,0
